<?xml version="1.0" encoding="UTF-8"?>
<ndm xmlns:xsi="http://www.w3.org/2001/XMLSchema-instance" xsi:noNamespaceSchemaLocation="https://sanaregistry.org/r/ndmxml_unqualified/ndmxml-2.0.0-master-2.0.xsd">
<omm id="CCSDS_OMM_VERS" version="2.0">
<header><CREATION_DATE/><ORIGINATOR/></header><body><segment><metadata><OBJECT_NAME>ONEWEB-0622</OBJECT_NAME><OBJECT_ID>2023-004Z</OBJECT_ID><CENTER_NAME>EARTH</CENTER_NAME><REF_FRAME>TEME</REF_FRAME><TIME_SYSTEM>UTC</TIME_SYSTEM><MEAN_ELEMENT_THEORY>SGP4</MEAN_ELEMENT_THEORY></metadata><data><meanElements><EPOCH>2025-05-23T08:53:07.920384</EPOCH><MEAN_MOTION>13.11418688</MEAN_MOTION><ECCENTRICITY>.0002817</ECCENTRICITY><INCLINATION>87.8826</INCLINATION><RA_OF_ASC_NODE>98.7748</RA_OF_ASC_NODE><ARG_OF_PERICENTER>77.2060</ARG_OF_PERICENTER><MEAN_ANOMALY>282.9383</MEAN_ANOMALY></meanElements><tleParameters><EPHEMERIS_TYPE>0</EPHEMERIS_TYPE><CLASSIFICATION_TYPE>U</CLASSIFICATION_TYPE><NORAD_CAT_ID>55163</NORAD_CAT_ID><ELEMENT_SET_NO>999</ELEMENT_SET_NO><REV_AT_EPOCH>11471</REV_AT_EPOCH><BSTAR>-.12856E-2</BSTAR><MEAN_MOTION_DOT>-.443E-5</MEAN_MOTION_DOT><MEAN_MOTION_DDOT>0</MEAN_MOTION_DDOT></tleParameters></data></segment></body></omm>
<omm id="CCSDS_OMM_VERS" version="2.0">
<header><CREATION_DATE/><ORIGINATOR/></header><body><segment><metadata><OBJECT_NAME>ONEWEB-0623</OBJECT_NAME><OBJECT_ID>2023-004AA</OBJECT_ID><CENTER_NAME>EARTH</CENTER_NAME><REF_FRAME>TEME</REF_FRAME><TIME_SYSTEM>UTC</TIME_SYSTEM><MEAN_ELEMENT_THEORY>SGP4</MEAN_ELEMENT_THEORY></metadata><data><meanElements><EPOCH>2025-05-23T12:59:49.029216</EPOCH><MEAN_MOTION>13.17647748</MEAN_MOTION><ECCENTRICITY>.0002653</ECCENTRICITY><INCLINATION>87.9066</INCLINATION><RA_OF_ASC_NODE>83.4762</RA_OF_ASC_NODE><ARG_OF_PERICENTER>68.2531</ARG_OF_PERICENTER><MEAN_ANOMALY>291.8883</MEAN_ANOMALY></meanElements><tleParameters><EPHEMERIS_TYPE>0</EPHEMERIS_TYPE><CLASSIFICATION_TYPE>U</CLASSIFICATION_TYPE><NORAD_CAT_ID>55164</NORAD_CAT_ID><ELEMENT_SET_NO>999</ELEMENT_SET_NO><REV_AT_EPOCH>11627</REV_AT_EPOCH><BSTAR>-.63979E-4</BSTAR><MEAN_MOTION_DOT>-.12E-6</MEAN_MOTION_DOT><MEAN_MOTION_DDOT>0</MEAN_MOTION_DDOT></tleParameters></data></segment></body></omm>
<omm id="CCSDS_OMM_VERS" version="2.0">
<header><CREATION_DATE/><ORIGINATOR/></header><body><segment><metadata><OBJECT_NAME>ONEWEB-0624</OBJECT_NAME><OBJECT_ID>2023-004AB</OBJECT_ID><CENTER_NAME>EARTH</CENTER_NAME><REF_FRAME>TEME</REF_FRAME><TIME_SYSTEM>UTC</TIME_SYSTEM><MEAN_ELEMENT_THEORY>SGP4</MEAN_ELEMENT_THEORY></metadata><data><meanElements><EPOCH>2025-05-23T12:54:44.872704</EPOCH><MEAN_MOTION>13.12939021</MEAN_MOTION><ECCENTRICITY>.0002028</ECCENTRICITY><INCLINATION>87.8893</INCLINATION><RA_OF_ASC_NODE>68.1705</RA_OF_ASC_NODE><ARG_OF_PERICENTER>77.3376</ARG_OF_PERICENTER><MEAN_ANOMALY>282.7979</MEAN_ANOMALY></meanElements><tleParameters><EPHEMERIS_TYPE>0</EPHEMERIS_TYPE><CLASSIFICATION_TYPE>U</CLASSIFICATION_TYPE><NORAD_CAT_ID>55165</NORAD_CAT_ID><ELEMENT_SET_NO>999</ELEMENT_SET_NO><REV_AT_EPOCH>11694</REV_AT_EPOCH><BSTAR>.87486E-3</BSTAR><MEAN_MOTION_DOT>.33E-5</MEAN_MOTION_DOT><MEAN_MOTION_DDOT>0</MEAN_MOTION_DDOT></tleParameters></data></segment></body></omm>
<omm id="CCSDS_OMM_VERS" version="2.0">
<header><CREATION_DATE/><ORIGINATOR/></header><body><segment><metadata><OBJECT_NAME>ONEWEB-0625</OBJECT_NAME><OBJECT_ID>2023-004AC</OBJECT_ID><CENTER_NAME>EARTH</CENTER_NAME><REF_FRAME>TEME</REF_FRAME><TIME_SYSTEM>UTC</TIME_SYSTEM><MEAN_ELEMENT_THEORY>SGP4</MEAN_ELEMENT_THEORY></metadata><data><meanElements><EPOCH>2025-05-23T09:06:33.529536</EPOCH><MEAN_MOTION>13.17649103</MEAN_MOTION><ECCENTRICITY>.0001863</ECCENTRICITY><INCLINATION>87.9064</INCLINATION><RA_OF_ASC_NODE>83.5065</RA_OF_ASC_NODE><ARG_OF_PERICENTER>80.6649</ARG_OF_PERICENTER><MEAN_ANOMALY>279.4693</MEAN_ANOMALY></meanElements><tleParameters><EPHEMERIS_TYPE>0</EPHEMERIS_TYPE><CLASSIFICATION_TYPE>U</CLASSIFICATION_TYPE><NORAD_CAT_ID>55166</NORAD_CAT_ID><ELEMENT_SET_NO>999</ELEMENT_SET_NO><REV_AT_EPOCH>11624</REV_AT_EPOCH><BSTAR>.14487E-4</BSTAR><MEAN_MOTION_DOT>.19E-6</MEAN_MOTION_DOT><MEAN_MOTION_DDOT>0</MEAN_MOTION_DDOT></tleParameters></data></segment></body></omm>
<omm id="CCSDS_OMM_VERS" version="2.0">
<header><CREATION_DATE/><ORIGINATOR/></header><body><segment><metadata><OBJECT_NAME>ONEWEB-0626</OBJECT_NAME><OBJECT_ID>2023-004AD</OBJECT_ID><CENTER_NAME>EARTH</CENTER_NAME><REF_FRAME>TEME</REF_FRAME><TIME_SYSTEM>UTC</TIME_SYSTEM><MEAN_ELEMENT_THEORY>SGP4</MEAN_ELEMENT_THEORY></metadata><data><meanElements><EPOCH>2025-05-22T20:06:31.265568</EPOCH><MEAN_MOTION>13.17647702</MEAN_MOTION><ECCENTRICITY>.0002195</ECCENTRICITY><INCLINATION>87.9065</INCLINATION><RA_OF_ASC_NODE>83.6125</RA_OF_ASC_NODE><ARG_OF_PERICENTER>96.2820</ARG_OF_PERICENTER><MEAN_ANOMALY>263.8562</MEAN_ANOMALY></meanElements><tleParameters><EPHEMERIS_TYPE>0</EPHEMERIS_TYPE><CLASSIFICATION_TYPE>U</CLASSIFICATION_TYPE><NORAD_CAT_ID>55167</NORAD_CAT_ID><ELEMENT_SET_NO>999</ELEMENT_SET_NO><REV_AT_EPOCH>11617</REV_AT_EPOCH><BSTAR>.93848E-4</BSTAR><MEAN_MOTION_DOT>.49E-6</MEAN_MOTION_DOT><MEAN_MOTION_DDOT>0</MEAN_MOTION_DDOT></tleParameters></data></segment></body></omm>
<omm id="CCSDS_OMM_VERS" version="2.0">
<header><CREATION_DATE/><ORIGINATOR/></header><body><segment><metadata><OBJECT_NAME>ONEWEB-0627</OBJECT_NAME><OBJECT_ID>2023-004AE</OBJECT_ID><CENTER_NAME>EARTH</CENTER_NAME><REF_FRAME>TEME</REF_FRAME><TIME_SYSTEM>UTC</TIME_SYSTEM><MEAN_ELEMENT_THEORY>SGP4</MEAN_ELEMENT_THEORY></metadata><data><meanElements><EPOCH>2025-05-22T19:49:32.013408</EPOCH><MEAN_MOTION>13.17649328</MEAN_MOTION><ECCENTRICITY>.000258</ECCENTRICITY><INCLINATION>87.9063</INCLINATION><RA_OF_ASC_NODE>83.6177</RA_OF_ASC_NODE><ARG_OF_PERICENTER>74.3240</ARG_OF_PERICENTER><MEAN_ANOMALY>285.8176</MEAN_ANOMALY></meanElements><tleParameters><EPHEMERIS_TYPE>0</EPHEMERIS_TYPE><CLASSIFICATION_TYPE>U</CLASSIFICATION_TYPE><NORAD_CAT_ID>55168</NORAD_CAT_ID><ELEMENT_SET_NO>999</ELEMENT_SET_NO><REV_AT_EPOCH>11617</REV_AT_EPOCH><BSTAR>.92041E-5</BSTAR><MEAN_MOTION_DOT>.16E-6</MEAN_MOTION_DOT><MEAN_MOTION_DDOT>0</MEAN_MOTION_DDOT></tleParameters></data></segment></body></omm>
<omm id="CCSDS_OMM_VERS" version="2.0">
<header><CREATION_DATE/><ORIGINATOR/></header><body><segment><metadata><OBJECT_NAME>ONEWEB-0628</OBJECT_NAME><OBJECT_ID>2023-004AF</OBJECT_ID><CENTER_NAME>EARTH</CENTER_NAME><REF_FRAME>TEME</REF_FRAME><TIME_SYSTEM>UTC</TIME_SYSTEM><MEAN_ELEMENT_THEORY>SGP4</MEAN_ELEMENT_THEORY></metadata><data><meanElements><EPOCH>2025-05-22T12:51:58.845600</EPOCH><MEAN_MOTION>13.12445396</MEAN_MOTION><ECCENTRICITY>.0002482</ECCENTRICITY><INCLINATION>87.8889</INCLINATION><RA_OF_ASC_NODE>68.3508</RA_OF_ASC_NODE><ARG_OF_PERICENTER>65.7841</ARG_OF_PERICENTER><MEAN_ANOMALY>294.3547</MEAN_ANOMALY></meanElements><tleParameters><EPHEMERIS_TYPE>0</EPHEMERIS_TYPE><CLASSIFICATION_TYPE>U</CLASSIFICATION_TYPE><NORAD_CAT_ID>55169</NORAD_CAT_ID><ELEMENT_SET_NO>999</ELEMENT_SET_NO><REV_AT_EPOCH>11679</REV_AT_EPOCH><BSTAR>.65453E-3</BSTAR><MEAN_MOTION_DOT>.248E-5</MEAN_MOTION_DOT><MEAN_MOTION_DDOT>0</MEAN_MOTION_DDOT></tleParameters></data></segment></body></omm>
<omm id="CCSDS_OMM_VERS" version="2.0">
<header><CREATION_DATE/><ORIGINATOR/></header><body><segment><metadata><OBJECT_NAME>ONEWEB-0629</OBJECT_NAME><OBJECT_ID>2023-004AG</OBJECT_ID><CENTER_NAME>EARTH</CENTER_NAME><REF_FRAME>TEME</REF_FRAME><TIME_SYSTEM>UTC</TIME_SYSTEM><MEAN_ELEMENT_THEORY>SGP4</MEAN_ELEMENT_THEORY></metadata><data><meanElements><EPOCH>2025-05-23T07:59:42.419040</EPOCH><MEAN_MOTION>13.17647171</MEAN_MOTION><ECCENTRICITY>.0001948</ECCENTRICITY><INCLINATION>87.9076</INCLINATION><RA_OF_ASC_NODE>83.4978</RA_OF_ASC_NODE><ARG_OF_PERICENTER>69.8876</ARG_OF_PERICENTER><MEAN_ANOMALY>290.2465</MEAN_ANOMALY></meanElements><tleParameters><EPHEMERIS_TYPE>0</EPHEMERIS_TYPE><CLASSIFICATION_TYPE>U</CLASSIFICATION_TYPE><NORAD_CAT_ID>55170</NORAD_CAT_ID><ELEMENT_SET_NO>999</ELEMENT_SET_NO><REV_AT_EPOCH>11624</REV_AT_EPOCH><BSTAR>.92716E-4</BSTAR><MEAN_MOTION_DOT>.49E-6</MEAN_MOTION_DOT><MEAN_MOTION_DDOT>0</MEAN_MOTION_DDOT></tleParameters></data></segment></body></omm>
<omm id="CCSDS_OMM_VERS" version="2.0">
<header><CREATION_DATE/><ORIGINATOR/></header><body><segment><metadata><OBJECT_NAME>ONEWEB-0631</OBJECT_NAME><OBJECT_ID>2023-004AH</OBJECT_ID><CENTER_NAME>EARTH</CENTER_NAME><REF_FRAME>TEME</REF_FRAME><TIME_SYSTEM>UTC</TIME_SYSTEM><MEAN_ELEMENT_THEORY>SGP4</MEAN_ELEMENT_THEORY></metadata><data><meanElements><EPOCH>2025-05-23T04:07:15.432960</EPOCH><MEAN_MOTION>13.18685357</MEAN_MOTION><ECCENTRICITY>.0002438</ECCENTRICITY><INCLINATION>87.9160</INCLINATION><RA_OF_ASC_NODE>52.9419</RA_OF_ASC_NODE><ARG_OF_PERICENTER>86.8176</ARG_OF_PERICENTER><MEAN_ANOMALY>273.3235</MEAN_ANOMALY></meanElements><tleParameters><EPHEMERIS_TYPE>0</EPHEMERIS_TYPE><CLASSIFICATION_TYPE>U</CLASSIFICATION_TYPE><NORAD_CAT_ID>55171</NORAD_CAT_ID><ELEMENT_SET_NO>999</ELEMENT_SET_NO><REV_AT_EPOCH>11827</REV_AT_EPOCH><BSTAR>.85689E-4</BSTAR><MEAN_MOTION_DOT>.47E-6</MEAN_MOTION_DOT><MEAN_MOTION_DDOT>0</MEAN_MOTION_DDOT></tleParameters></data></segment></body></omm>

</ndm>
